start=new Date('2022-07-17T00:00:00.000Z').valueOf();
sats=[{"COUNTRY_CODE":"US","RA_OF_ASC_NODE":"250.5408","ECCENTRICITY":"0.00017750","ARG_OF_PERICENTER":"53.3522","TLE_LINE2":"2 47402  53.0525 250.5408 0001775  53.3522 306.7630 15.06444632 82722","MEAN_ELEMENT_THEORY":"SGP4","TIME_SYSTEM":"UTC","LAUNCH_DATE":"2021-01-20","ELEMENT_SET_NO":"999","MEAN_MOTION_DDOT":"0.0000000000000","FILE":"3515618","DECAY_DATE":null,"TLE_LINE1":"1 47402U 21005BF  22197.83638160  .00017112  00000-0  11635-2 0  9991","NORAD_CAT_ID":"47402","OBJECT_NAME":"STARLINK-2124","PERIAPSIS":"545.848","PERIOD":"95.589","OBJECT_ID":"2021-005BF","CLASSIFICATION_TYPE":"U","MEAN_MOTION":"15.06444632","EPOCH":"2022-07-16T20:04:23.370240","SEMIMAJOR_AXIS":"6925.212","GP_ID":"208269534","MEAN_MOTION_DOT":"0.00017112","MEAN_ANOMALY":"306.7630","RCS_SIZE":"LARGE","REV_AT_EPOCH":"8272","REF_FRAME":"TEME","SITE":"AFETR","INCLINATION":"53.0525","CENTER_NAME":"EARTH","OBJECT_TYPE":"PAYLOAD","EPHEMERIS_TYPE":"0","BSTAR":"0.00116350000000","APOAPSIS":"548.306"},{"ELEMENT_SET_NO":"999","FILE":"3515618","MEAN_MOTION_DDOT":"0.0000000000000","TLE_LINE1":"1 47403U 21005BG  22197.84376403  .00007679  00000-0  53366-3 0  9997","DECAY_DATE":null,"NORAD_CAT_ID":"47403","COUNTRY_CODE":"US","ARG_OF_PERICENTER":"78.9123","RA_OF_ASC_NODE":"250.5177","ECCENTRICITY":"0.00013250","MEAN_ELEMENT_THEORY":"SGP4","TLE_LINE2":"2 47403  53.0529 250.5177 0001325  78.9123 281.2014 15.06412991 82727","LAUNCH_DATE":"2021-01-20","TIME_SYSTEM":"UTC","REF_FRAME":"TEME","SITE":"AFETR","INCLINATION":"53.0529","CENTER_NAME":"EARTH","OBJECT_TYPE":"PAYLOAD","APOAPSIS":"548.091","BSTAR":"0.00053366000000","EPHEMERIS_TYPE":"0","OBJECT_NAME":"STARLINK-2127","PERIAPSIS":"546.256","PERIOD":"95.591","OBJECT_ID":"2021-005BG","MEAN_MOTION":"15.06412991","CLASSIFICATION_TYPE":"U","SEMIMAJOR_AXIS":"6925.309","EPOCH":"2022-07-16T20:15:01.212192","GP_ID":"208270284","RCS_SIZE":"LARGE","REV_AT_EPOCH":"8272","MEAN_ANOMALY":"281.2014","MEAN_MOTION_DOT":"0.00007679"},{"REF_FRAME":"TEME","CENTER_NAME":"EARTH","INCLINATION":"53.0535","SITE":"AFETR","OBJECT_TYPE":"PAYLOAD","APOAPSIS":"548.241","BSTAR":"0.00020349000000","EPHEMERIS_TYPE":"0","PERIAPSIS":"546.181","OBJECT_NAME":"STARLINK-2128","MEAN_MOTION":"15.06400913","CLASSIFICATION_TYPE":"U","PERIOD":"95.592","OBJECT_ID":"2021-005BH","GP_ID":"208270535","SEMIMAJOR_AXIS":"6925.346","EPOCH":"2022-07-16T20:09:42.834240","RCS_SIZE":"LARGE","REV_AT_EPOCH":"8272","MEAN_ANOMALY":"299.0451","MEAN_MOTION_DOT":"0.00002751","ELEMENT_SET_NO":"999","FILE":"3515618","MEAN_MOTION_DDOT":"0.0000000000000","TLE_LINE1":"1 47404U 21005BH  22197.84007910  .00002751  00000-0  20349-3 0  9993","DECAY_DATE":null,"NORAD_CAT_ID":"47404","COUNTRY_CODE":"US","ARG_OF_PERICENTER":"61.0687","RA_OF_ASC_NODE":"250.5325","ECCENTRICITY":"0.00014870","MEAN_ELEMENT_THEORY":"SGP4","TLE_LINE2":"2 47404  53.0535 250.5325 0001487  61.0687 299.0451 15.06400913 82720","LAUNCH_DATE":"2021-01-20","TIME_SYSTEM":"UTC"},{"PERIAPSIS":"546.220","OBJECT_NAME":"STARLINK-2130","CLASSIFICATION_TYPE":"U","MEAN_MOTION":"15.06389913","OBJECT_ID":"2021-005BJ","PERIOD":"95.593","GP_ID":"208271275","EPOCH":"2022-07-16T14:57:54.123840","SEMIMAJOR_AXIS":"6925.379","MEAN_MOTION_DOT":"0.00005306","MEAN_ANOMALY":"291.1735","RCS_SIZE":"LARGE","REV_AT_EPOCH":"8226","REF_FRAME":"TEME","CENTER_NAME":"EARTH","INCLINATION":"53.0549","SITE":"AFETR","OBJECT_TYPE":"PAYLOAD","BSTAR":"0.00037495000000","EPHEMERIS_TYPE":"0","APOAPSIS":"548.269","COUNTRY_CODE":"US","ECCENTRICITY":"0.00014790","RA_OF_ASC_NODE":"281.4897","ARG_OF_PERICENTER":"68.9412","TLE_LINE2":"2 47405  53.0549 281.4897 0001479  68.9412 291.1735 15.06389913 82269","MEAN_ELEMENT_THEORY":"SGP4","TIME_SYSTEM":"UTC","LAUNCH_DATE":"2021-01-20","ELEMENT_SET_NO":"999","MEAN_MOTION_DDOT":"0.0000000000000","FILE":"3515618","DECAY_DATE":null,"TLE_LINE1":"1 47405U 21005BJ  22197.62354310  .00005306  00000-0  37495-3 0  9998","NORAD_CAT_ID":"47405"},{"OBJECT_TYPE":"PAYLOAD","APOAPSIS":"547.982","BSTAR":"0.00059980000000","EPHEMERIS_TYPE":"0","REF_FRAME":"TEME","SITE":"AFETR","INCLINATION":"53.0523","CENTER_NAME":"EARTH","SEMIMAJOR_AXIS":"6925.306","EPOCH":"2022-07-16T20:25:38.207424","GP_ID":"208270034","REV_AT_EPOCH":"8272","RCS_SIZE":"LARGE","MEAN_MOTION_DOT":"0.00008667","MEAN_ANOMALY":"268.2823","OBJECT_NAME":"STARLINK-2133","PERIAPSIS":"546.361","PERIOD":"95.591","OBJECT_ID":"2021-005BK","MEAN_MOTION":"15.06413799","CLASSIFICATION_TYPE":"U","TLE_LINE1":"1 47406U 21005BK  22197.85113666  .00008667  00000-0  59980-3 0  9997","DECAY_DATE":null,"NORAD_CAT_ID":"47406","ELEMENT_SET_NO":"999","FILE":"3515618","MEAN_MOTION_DDOT":"0.0000000000000","MEAN_ELEMENT_THEORY":"SGP4","TLE_LINE2":"2 47406  53.0523 250.4872 0001170  91.8300 268.2823 15.06413799 82724","LAUNCH_DATE":"2021-01-20","TIME_SYSTEM":"UTC","COUNTRY_CODE":"US","ARG_OF_PERICENTER":"91.8300","ECCENTRICITY":"0.00011700","RA_OF_ASC_NODE":"250.4872"},{"SITE":"AFETR","CENTER_NAME":"EARTH","INCLINATION":"53.0525","REF_FRAME":"TEME","EPHEMERIS_TYPE":"0","BSTAR":"0.00015956000000","APOAPSIS":"548.137","OBJECT_TYPE":"PAYLOAD","PERIOD":"95.592","OBJECT_ID":"2021-005BL","CLASSIFICATION_TYPE":"U","MEAN_MOTION":"15.06404291","OBJECT_NAME":"STARLINK-2134","PERIAPSIS":"546.264","MEAN_ANOMALY":"295.7863","MEAN_MOTION_DOT":"0.00002096","REV_AT_EPOCH":"8272","RCS_SIZE":"LARGE","EPOCH":"2022-07-16T20:36:15.301152","SEMIMAJOR_AXIS":"6925.335","GP_ID":"208269785","MEAN_MOTION_DDOT":"0.0000000000000","FILE":"3515618","ELEMENT_SET_NO":"999","NORAD_CAT_ID":"47407","DECAY_DATE":null,"TLE_LINE1":"1 47407U 21005BL  22197.85851043  .00002096  00000-0  15956-3 0  9991","ECCENTRICITY":"0.00013520","RA_OF_ASC_NODE":"250.4506","ARG_OF_PERICENTER":"64.3266","COUNTRY_CODE":"US","TIME_SYSTEM":"UTC","LAUNCH_DATE":"2021-01-20","TLE_LINE2":"2 47407  53.0525 250.4506 0001352  64.3266 295.7863 15.06404291 82725","MEAN_ELEMENT_THEORY":"SGP4"},{"REV_AT_EPOCH":"8266","RCS_SIZE":"LARGE","MEAN_MOTION_DOT":"0.00001454","MEAN_ANOMALY":"280.8702","SEMIMAJOR_AXIS":"6925.373","EPOCH":"2022-07-16T10:20:33.789696","GP_ID":"208240253","PERIOD":"95.593","OBJECT_ID":"2021-005BM","MEAN_MOTION":"15.06391869","CLASSIFICATION_TYPE":"U","OBJECT_NAME":"STARLINK-2135","PERIAPSIS":"546.344","APOAPSIS":"548.133","EPHEMERIS_TYPE":"0","BSTAR":"0.00011648000000","OBJECT_TYPE":"PAYLOAD","SITE":"AFETR","INCLINATION":"53.0542","CENTER_NAME":"EARTH","REF_FRAME":"TEME","LAUNCH_DATE":"2021-01-20","TIME_SYSTEM":"UTC","MEAN_ELEMENT_THEORY":"SGP4","TLE_LINE2":"2 47408  53.0542 252.3736 0001292  79.2432 280.8702 15.06391869 82660","ARG_OF_PERICENTER":"79.2432","RA_OF_ASC_NODE":"252.3736","ECCENTRICITY":"0.00012920","COUNTRY_CODE":"US","NORAD_CAT_ID":"47408","TLE_LINE1":"1 47408U 21005BM  22197.43094664  .00001454  00000-0  11648-3 0  9995","DECAY_DATE":null,"FILE":"3515362","MEAN_MOTION_DDOT":"0.0000000000000","ELEMENT_SET_NO":"999"},{"DECAY_DATE":null,"TLE_LINE1":"1 47548U 21009A   22197.56917391  .00006081  00000-0  42674-3 0  9993","NORAD_CAT_ID":"47548","ELEMENT_SET_NO":"999","MEAN_MOTION_DDOT":"0.0000000000000","FILE":"3515618","TLE_LINE2":"2 47548  53.0527 231.7489 0001737  53.8658 306.2492 15.06404766 80158","MEAN_ELEMENT_THEORY":"SGP4","TIME_SYSTEM":"UTC","LAUNCH_DATE":"2021-02-04","COUNTRY_CODE":"US","RA_OF_ASC_NODE":"231.7489","ECCENTRICITY":"0.00017370","ARG_OF_PERICENTER":"53.8658","OBJECT_TYPE":"PAYLOAD","BSTAR":"0.00042674000000","EPHEMERIS_TYPE":"0","APOAPSIS":"548.402","REF_FRAME":"TEME","CENTER_NAME":"EARTH","INCLINATION":"53.0527","SITE":"AFETR","GP_ID":"208270551","EPOCH":"2022-07-16T13:39:36.625824","SEMIMAJOR_AXIS":"6925.334","MEAN_ANOMALY":"306.2492","MEAN_MOTION_DOT":"0.00006081","REV_AT_EPOCH":"8015","RCS_SIZE":"LARGE","PERIAPSIS":"545.996","OBJECT_NAME":"STARLINK-1782","CLASSIFICATION_TYPE":"U","MEAN_MOTION":"15.06404766","PERIOD":"95.592","OBJECT_ID":"2021-009A"},{"TIME_SYSTEM":"UTC","LAUNCH_DATE":"2021-02-04","TLE_LINE2":"2 47549  53.0535 230.5700 0001362  70.2719 289.8417 15.06396333 80193","MEAN_ELEMENT_THEORY":"SGP4","RA_OF_ASC_NODE":"230.5700","ECCENTRICITY":"0.00013620","ARG_OF_PERICENTER":"70.2719","COUNTRY_CODE":"US","NORAD_CAT_ID":"47549","DECAY_DATE":null,"TLE_LINE1":"1 47549U 21009B   22197.83087203  .00002048  00000-0  15639-3 0  9994","MEAN_MOTION_DDOT":"0.0000000000000","FILE":"3515618","ELEMENT_SET_NO":"999","MEAN_MOTION_DOT":"0.00002048","MEAN_ANOMALY":"289.8417","REV_AT_EPOCH":"8019","RCS_SIZE":"LARGE","EPOCH":"2022-07-16T19:56:27.343392","SEMIMAJOR_AXIS":"6925.360","GP_ID":"208271291","OBJECT_ID":"2021-009B","PERIOD":"95.592","CLASSIFICATION_TYPE":"U","MEAN_MOTION":"15.06396333","OBJECT_NAME":"STARLINK-1806","PERIAPSIS":"546.282","EPHEMERIS_TYPE":"0","BSTAR":"0.00015639000000","APOAPSIS":"548.168","OBJECT_TYPE":"PAYLOAD","SITE":"AFETR","CENTER_NAME":"EARTH","INCLINATION":"53.0535","REF_FRAME":"TEME"},{"FILE":"3515618","MEAN_MOTION_DDOT":"0.0000000000000","ELEMENT_SET_NO":"999","NORAD_CAT_ID":"47550","TLE_LINE1":"1 47550U 21009C   22197.77650250  .00000110  00000-0  26271-4 0  9990","DECAY_DATE":null,"ARG_OF_PERICENTER":"56.2455","RA_OF_ASC_NODE":"220.8068","ECCENTRICITY":"0.00015600","COUNTRY_CODE":"US","LAUNCH_DATE":"2021-02-04","TIME_SYSTEM":"UTC","MEAN_ELEMENT_THEORY":"SGP4","TLE_LINE2":"2 47550  53.0527 220.8068 0001560  56.2455 303.8683 15.06391889 80324","SITE":"AFETR","CENTER_NAME":"EARTH","INCLINATION":"53.0527","REF_FRAME":"TEME","APOAPSIS":"548.319","EPHEMERIS_TYPE":"0","BSTAR":"0.00002627100000","OBJECT_TYPE":"PAYLOAD","OBJECT_ID":"2021-009C","PERIOD":"95.593","MEAN_MOTION":"15.06391889","CLASSIFICATION_TYPE":"U","OBJECT_NAME":"STARLINK-1909","PERIAPSIS":"546.158","REV_AT_EPOCH":"8032","RCS_SIZE":"LARGE","MEAN_ANOMALY":"303.8683","MEAN_MOTION_DOT":"0.00000110","SEMIMAJOR_AXIS":"6925.373","EPOCH":"2022-07-16T18:38:09.816000","GP_ID":"208270050"}];
